GSAT0101 (GALILEO-PFM)  
1 37846U 11060A   24301.11827256 -.00000100  00000+0  00000+0 0  9998
2 37846  57.1225 357.9675 0001355 294.3747  65.6679  1.70475924 80910
GSAT0102 (GALILEO-FM2)  
1 37847U 11060B   24304.55021593 -.00000086  00000+0  00000+0 0  9993
2 37847  57.1224 357.8747 0002999 296.3844  55.3588  1.70475577 80980
GSAT0103 (GALILEO-FM3)  
1 38857U 12055A   24304.09063158  .00000072  00000+0  00000+0 0  9996
2 38857  55.4694 117.8960 0001904 253.2843 106.7352  1.70473666 74868
GSAT0201 (GALILEO 5)    
1 40128U 14050A   24304.37417463 -.00000069  00000+0  00000+0 0  9997
2 40128  49.5206 297.6203 1614582 156.5252 211.7674  1.85519688 67287
GSAT0202 (GALILEO 6)    
1 40129U 14050B   24305.17095264 -.00000067  00000+0  00000+0 0  9996
2 40129  49.5361 296.6670 1613870 157.3481 210.6723  1.85520393 69469
GSAT0203 (GALILEO 7)    
1 40544U 15017A   24305.00327305 -.00000085  00000+0  00000+0 0  9997
2 40544  56.9170 357.7778 0005700 252.6115 107.3932  1.70476381 59078
GSAT0204 (GALILEO 8)    
1 40545U 15017B   24304.67126379 -.00000086  00000+0  00000+0 0  9999
2 40545  56.9231 357.8029 0005632 243.5794 116.4290  1.70475803 59732
GSAT0205 (GALILEO 9)    
1 40889U 15045A   24304.43947577 -.00000023  00000+0  00000+0 0  9997
2 40889  55.1605 238.0344 0004493  21.4246 338.5792  1.70473065 56872
GSAT0206 (GALILEO 10)   
1 40890U 15045B   24305.24671775 -.00000018  00000+0  00000+0 0  9997
2 40890  55.1592 238.0075 0002790   8.8314 351.1627  1.70473029 56916
GSAT0209 (GALILEO 12)   
1 41174U 15079A   24304.24317627  .00000072  00000+0  00000+0 0  9991
2 41174  55.4901 117.6023 0002049 358.5880   1.4506  1.70474354 54634
GSAT0208 (GALILEO 11)   
1 41175U 15079B   24303.28986575  .00000071  00000+0  00000+0 0  9998
2 41175  55.4849 117.6259 0001708  14.8466 345.2012  1.70474281 55035
GSAT0211 (GALILEO 14)   
1 41549U 16030A   24305.17242994 -.00000018  00000+0  00000+0 0  9993
2 41549  55.3077 238.0354 0003557 338.9236  21.0504  1.70473126 52528
GSAT0210 (GALILEO 13)   
1 41550U 16030B   24304.25729972 -.00000024  00000+0  00000+0 0  9996
2 41550  55.3076 238.0588 0002516 248.8076 111.1499  1.70473568 52527
GSAT0207 (GALILEO 15)   
1 41859U 16069A   24303.95013632  .00000071  00000+0  00000+0 0  9996
2 41859  55.1542 117.5791 0001684 324.1444  35.8847  1.70474311 49256
GSAT0212 (GALILEO 16)   
1 41860U 16069B   24306.15059225  .00000072  00000+0  00000+0 0  9992
2 41860  55.1533 117.5142 0002068  39.0740 320.9695  1.70474531 49541
GSAT0213 (GALILEO 17)   
1 41861U 16069C   24305.34577164  .00000072  00000+0  00000+0 0  9990
2 41861  55.1546 117.5435 0001638 270.7648  89.2498  1.70474835 49390
GSAT0214 (GALILEO 18)   
1 41862U 16069D   24303.14485201  .00000070  00000+0  00000+0 0  9995
2 41862  55.1517 117.5978 0000707 272.5233  87.5119  1.70474598 49484
GSAT0215 (GALILEO 19)   
1 43055U 17079A   24303.63430124 -.00000028  00000+0  00000+0 0  9995
2 43055  55.2857 237.8975 0002258 290.0951  69.8631  1.70473799 42832
GSAT0216 (GALILEO 20)   
1 43056U 17079B   24302.16614225 -.00000035  00000+0  00000+0 0  9997
2 43056  55.2868 237.9377 0003802 291.5060  68.4340  1.70473924 42826
GSAT0217 (GALILEO 21)   
1 43057U 17079C   24305.90619422 -.00000013  00000+0  00000+0 0  9993
2 43057  55.2826 237.8336 0003415 310.9353  49.0287  1.70473875 42871
GSAT0218 (GALILEO 22)   
1 43058U 17079D   24304.36647883 -.00000024  00000+0  00000+0 0  9997
2 43058  55.2836 237.8735 0004191 285.6809  74.2580  1.70473906 42873
GSAT0221 (GALILEO 25)   
1 43564U 18060A   24301.33476582 -.00000099  00000+0  00000+0 0  9992
2 43564  57.2968 357.9114 0005407 267.3047  92.6910  1.70476090 38985
GSAT0222 (GALILEO 26)   
1 43565U 18060B   24302.72664784 -.00000094  00000+0  00000+0 0  9995
2 43565  57.3008 357.8760 0005346 242.2497 117.7574  1.70476048 39047
GSAT0219 (GALILEO 23)   
1 43566U 18060C   24302.94833310 -.00000093  00000+0  00000+0 0  9992
2 43566  57.2993 357.8717 0004996 271.0916  88.9132  1.70476238 39026
GSAT0220 (GALILEO 24)   
1 43567U 18060D   24305.51540085 -.00000082  00000+0  00000+0 0  9991
2 43567  57.2995 357.8031 0004736 266.2665  93.7479  1.70476383 39048
GSAT0223 (GALILEO 27)   
1 49809U 21116A   24303.31854976 -.00000091  00000+0  00000+0 0  9995
2 49809  57.2900 357.7554 0004211 224.7381 317.5381  1.70476512 18028
GSAT0224 (GALILEO 28)   
1 49810U 21116B   24304.59119167 -.00000086  00000+0  00000+0 0  9998
2 49810  57.2908 357.7198 0003351 224.2714 131.5805  1.70476519 18067
GSAT0225 (GALILEO 29)   
1 59598U 24079A   24304.91026699  .00000071  00000+0  00000+0 0  9999
2 59598  54.7700 117.7098 0002630 158.5044  24.0869  1.70474773  3183
GSAT0227 (GALILEO 30)   
1 59600U 24079C   24304.20956961  .00000070  00000+0  00000+0 0  9998
2 59600  54.7657 117.7297 0003851 113.6709 246.4095  1.70474662  3228
GSAT0232 (GALILEO 32)   
1 61182U 24167A   24301.00687480 -.00000036  00000+0  00000+0 0  9999
2 61182  55.3980 237.7111 0016456 274.7209  85.0739  1.73176900   674
GSAT0226 (GALILEO 31)   
1 61183U 24167B   24301.95071725 -.00000035  00000+0  00000+0 0  9992
2 61183  55.3944 237.7060 0033143  97.6119 262.7460  1.71381502   671
